{"fetched_at":"2026-03-30T13:17:50Z","count":15418,"tles":[{"name":"STARLINK-31374","line1":"1 59404U 24064G   26087.87995161  .00003738  00000+0  14525-3 0  9997","line2":"2 59404  43.0008 256.7356 0001428 273.5848  86.4840 15.27591779112495","category":"Starlink"}]}