{
  "norad_id": 59404,
  "name": "STARLINK-31374",
  "history": [
    {
      "epoch": "2026-03-28T21:07:07.819104",
      "apogee_km": 483.9935980407299,
      "perigee_km": 482.0340533649078,
      "latitude_deg": -35.417722574121925,
      "longitude_deg": -155.12464544014074,
      "semi_major_axis_km": 6861.150825702818,
      "eccentricity": 0.0001428,
      "inclination_deg": 43.0008,
      "raan_deg": 256.7356,
      "arg_perigee_deg": 273.5848,
      "mean_anomaly_deg": 86.484,
      "mean_motion_rev_day": 15.27591779
    }
  ]
}